FENGYUN 1C DEB          
1 29909U 99025HF  17345.67407372  .00000868  00000-0  36916-3 0  9990
2 29909  98.7918  34.5507 0060964 345.5276 136.6449 14.26854574565346
